start=new Date('2022-06-27T00:00:00.000Z').valueOf();
sats=[{"OBJECT_TYPE":"PAYLOAD","RCS_SIZE":"LARGE","PERIOD":"95.592","MEAN_ANOMALY":"291.7466","RA_OF_ASC_NODE":"10.4942","REV_AT_EPOCH":"7928","SEMIMAJOR_AXIS":"6925.363","BSTAR":"0.00009469100000","INCLINATION":"53.0564","CENTER_NAME":"EARTH","EPHEMERIS_TYPE":"0","OBJECT_ID":"2021-005B","MEAN_MOTION_DDOT":"0.0000000000000","FILE":"3503441","TLE_LINE2":"2 47350  53.0564  10.4942 0001894  68.3725 291.7466 15.06395137 79288","COUNTRY_CODE":"US","ELEMENT_SET_NO":"999","REF_FRAME":"TEME","LAUNCH_DATE":"2021-01-20","NORAD_CAT_ID":"47350","DECAY_DATE":null,"TLE_LINE1":"1 47350U 21005B   22177.80055109  .00001129  00000-0  94691-4 0  9990","SITE":"AFETR","PERIAPSIS":"545.917","ARG_OF_PERICENTER":"68.3725","CLASSIFICATION_TYPE":"U","MEAN_ELEMENT_THEORY":"SGP4","MEAN_MOTION_DOT":"0.00001129","GP_ID":"206926087","MEAN_MOTION":"15.06395137","EPOCH":"2022-06-26T19:12:47.614176","OBJECT_NAME":"STARLINK-2011","TIME_SYSTEM":"UTC","APOAPSIS":"548.540","ECCENTRICITY":"0.00018940"},{"MEAN_ANOMALY":"284.2111","PERIOD":"95.592","OBJECT_TYPE":"PAYLOAD","RCS_SIZE":"LARGE","INCLINATION":"53.0562","BSTAR":"0.00000722590000","RA_OF_ASC_NODE":"330.9347","REV_AT_EPOCH":"7982","SEMIMAJOR_AXIS":"6925.353","MEAN_MOTION_DDOT":"0.0000000000000","OBJECT_ID":"2021-005C","EPHEMERIS_TYPE":"0","CENTER_NAME":"EARTH","LAUNCH_DATE":"2021-01-20","REF_FRAME":"TEME","COUNTRY_CODE":"US","TLE_LINE2":"2 47351  53.0562 330.9347 0001550  75.9050 284.2111 15.06398681 79821","FILE":"3503441","ELEMENT_SET_NO":"999","MEAN_ELEMENT_THEORY":"SGP4","CLASSIFICATION_TYPE":"U","TLE_LINE1":"1 47351U 21005C   22177.69639529 -.00000174  00000-0  72259-5 0  9999","SITE":"AFETR","ARG_OF_PERICENTER":"75.9050","PERIAPSIS":"546.144","NORAD_CAT_ID":"47351","DECAY_DATE":null,"MEAN_MOTION_DOT":"-0.00000174","GP_ID":"206925357","MEAN_MOTION":"15.06398681","OBJECT_NAME":"STARLINK-2017","EPOCH":"2022-06-26T16:42:48.553056","APOAPSIS":"548.291","TIME_SYSTEM":"UTC","ECCENTRICITY":"0.00015500"},{"TLE_LINE2":"2 47352  53.0554  10.2818 0001496  64.4920 295.6224 15.06391802 79281","FILE":"3503441","COUNTRY_CODE":"US","ELEMENT_SET_NO":"999","LAUNCH_DATE":"2021-01-20","REF_FRAME":"TEME","OBJECT_ID":"2021-005D","CENTER_NAME":"EARTH","EPHEMERIS_TYPE":"0","MEAN_MOTION_DDOT":"0.0000000000000","RA_OF_ASC_NODE":"10.2818","REV_AT_EPOCH":"7928","SEMIMAJOR_AXIS":"6925.374","INCLINATION":"53.0554","BSTAR":"0.00010201000000","OBJECT_TYPE":"PAYLOAD","RCS_SIZE":"LARGE","MEAN_ANOMALY":"295.6224","PERIOD":"95.593","APOAPSIS":"548.275","TIME_SYSTEM":"UTC","ECCENTRICITY":"0.00014960","MEAN_MOTION":"15.06391802","OBJECT_NAME":"STARLINK-2034","EPOCH":"2022-06-26T20:21:48.376512","MEAN_MOTION_DOT":"0.00001238","GP_ID":"206925109","TLE_LINE1":"1 47352U 21005D   22177.84847658  .00001238  00000-0  10201-3 0  9999","SITE":"AFETR","PERIAPSIS":"546.203","ARG_OF_PERICENTER":"64.4920","NORAD_CAT_ID":"47352","DECAY_DATE":null,"MEAN_ELEMENT_THEORY":"SGP4","CLASSIFICATION_TYPE":"U"},{"OBJECT_NAME":"STARLINK-2045","EPOCH":"2022-06-26T19:17:25.856736","MEAN_MOTION":"15.06400190","ECCENTRICITY":"0.00017200","TIME_SYSTEM":"UTC","APOAPSIS":"548.404","SITE":"AFETR","PERIAPSIS":"546.022","ARG_OF_PERICENTER":"64.2320","TLE_LINE1":"1 47353U 21005E   22177.80377149  .00001710  00000-0  13368-3 0  9991","DECAY_DATE":null,"NORAD_CAT_ID":"47353","CLASSIFICATION_TYPE":"U","MEAN_ELEMENT_THEORY":"SGP4","GP_ID":"206901831","MEAN_MOTION_DOT":"0.00001710","OBJECT_ID":"2021-005E","CENTER_NAME":"EARTH","EPHEMERIS_TYPE":"0","MEAN_MOTION_DDOT":"0.0000000000000","ELEMENT_SET_NO":"999","COUNTRY_CODE":"US","TLE_LINE2":"2 47353  53.0563 315.4799 0001720  64.2320 295.8846 15.06400190 80715","FILE":"3503314","LAUNCH_DATE":"2021-01-20","REF_FRAME":"TEME","RCS_SIZE":"LARGE","OBJECT_TYPE":"PAYLOAD","MEAN_ANOMALY":"295.8846","PERIOD":"95.592","REV_AT_EPOCH":"8071","SEMIMAJOR_AXIS":"6925.348","RA_OF_ASC_NODE":"315.4799","INCLINATION":"53.0563","BSTAR":"0.00013368000000"},{"SITE":"AFETR","PERIAPSIS":"546.175","ARG_OF_PERICENTER":"72.5412","TLE_LINE1":"1 47354U 21005F   22177.75033867  .00000367  00000-0  43526-4 0  9999","NORAD_CAT_ID":"47354","DECAY_DATE":null,"MEAN_ELEMENT_THEORY":"SGP4","CLASSIFICATION_TYPE":"U","GP_ID":"206926587","MEAN_MOTION_DOT":"0.00000367","OBJECT_NAME":"STARLINK-2046","EPOCH":"2022-06-26T18:00:29.261088","MEAN_MOTION":"15.06392125","ECCENTRICITY":"0.00015340","APOAPSIS":"548.300","TIME_SYSTEM":"UTC","RCS_SIZE":"LARGE","OBJECT_TYPE":"PAYLOAD","MEAN_ANOMALY":"287.5744","PERIOD":"95.593","REV_AT_EPOCH":"7976","SEMIMAJOR_AXIS":"6925.373","RA_OF_ASC_NODE":"335.7061","INCLINATION":"53.0559","BSTAR":"0.00004352600000","OBJECT_ID":"2021-005F","EPHEMERIS_TYPE":"0","CENTER_NAME":"EARTH","MEAN_MOTION_DDOT":"0.0000000000000","ELEMENT_SET_NO":"999","TLE_LINE2":"2 47354  53.0559 335.7061 0001534  72.5412 287.5744 15.06392125 79761","FILE":"3503441","COUNTRY_CODE":"US","LAUNCH_DATE":"2021-01-20","REF_FRAME":"TEME"},{"APOAPSIS":"548.082","TIME_SYSTEM":"UTC","ECCENTRICITY":"0.00012530","MEAN_MOTION":"15.06399642","OBJECT_NAME":"STARLINK-2047","EPOCH":"2022-06-26T16:56:07.105920","MEAN_MOTION_DOT":"0.00001654","GP_ID":"206924859","MEAN_ELEMENT_THEORY":"SGP4","CLASSIFICATION_TYPE":"U","NORAD_CAT_ID":"47355","DECAY_DATE":null,"TLE_LINE1":"1 47355U 21005G   22177.70563780  .00001654  00000-0  12988-3 0  9994","PERIAPSIS":"546.347","SITE":"AFETR","ARG_OF_PERICENTER":"66.0236","REF_FRAME":"TEME","LAUNCH_DATE":"2021-01-20","COUNTRY_CODE":"US","TLE_LINE2":"2 47355  53.0533 320.9083 0001253  66.0236 294.0884 15.06399642 79965","FILE":"3503441","ELEMENT_SET_NO":"999","MEAN_MOTION_DDOT":"0.0000000000000","EPHEMERIS_TYPE":"0","CENTER_NAME":"EARTH","OBJECT_ID":"2021-005G","BSTAR":"0.00012988000000","INCLINATION":"53.0533","RA_OF_ASC_NODE":"320.9083","REV_AT_EPOCH":"7996","SEMIMAJOR_AXIS":"6925.350","PERIOD":"95.592","MEAN_ANOMALY":"294.0884","OBJECT_TYPE":"PAYLOAD","RCS_SIZE":"LARGE"},{"EPOCH":"2022-06-26T21:13:32.661984","OBJECT_NAME":"STARLINK-2049","MEAN_MOTION":"15.06395549","ECCENTRICITY":"0.00015880","APOAPSIS":"548.327","TIME_SYSTEM":"UTC","CLASSIFICATION_TYPE":"U","MEAN_ELEMENT_THEORY":"SGP4","ARG_OF_PERICENTER":"82.6980","SITE":"AFETR","PERIAPSIS":"546.127","TLE_LINE1":"1 47356U 21005H   22177.88440581  .00000429  00000-0  47701-4 0  9998","DECAY_DATE":null,"NORAD_CAT_ID":"47356","GP_ID":"206925608","MEAN_MOTION_DOT":"0.00000429","MEAN_MOTION_DDOT":"0.0000000000000","OBJECT_ID":"2021-005H","EPHEMERIS_TYPE":"0","CENTER_NAME":"EARTH","LAUNCH_DATE":"2021-01-20","REF_FRAME":"TEME","ELEMENT_SET_NO":"999","TLE_LINE2":"2 47356  53.0565 340.1156 0001588  82.6980 277.4189 15.06395549 79715","FILE":"3503441","COUNTRY_CODE":"US","MEAN_ANOMALY":"277.4189","PERIOD":"95.592","RCS_SIZE":"LARGE","OBJECT_TYPE":"PAYLOAD","INCLINATION":"53.0565","BSTAR":"0.00004770100000","REV_AT_EPOCH":"7971","SEMIMAJOR_AXIS":"6925.362","RA_OF_ASC_NODE":"340.1156"},{"MEAN_MOTION_DDOT":"0.0000000000000","EPHEMERIS_TYPE":"0","CENTER_NAME":"EARTH","OBJECT_ID":"2021-005J","REF_FRAME":"TEME","LAUNCH_DATE":"2021-01-20","ELEMENT_SET_NO":"999","TLE_LINE2":"2 47357  53.0565  10.3651 0001281  68.2827 291.8299 15.06401626 79280","COUNTRY_CODE":"US","FILE":"3503441","PERIOD":"95.592","MEAN_ANOMALY":"291.8299","RCS_SIZE":"LARGE","OBJECT_TYPE":"PAYLOAD","BSTAR":"0.00010568000000","INCLINATION":"53.0565","SEMIMAJOR_AXIS":"6925.344","REV_AT_EPOCH":"7928","RA_OF_ASC_NODE":"10.3651","EPOCH":"2022-06-26T19:49:56.231328","OBJECT_NAME":"STARLINK-2050","MEAN_MOTION":"15.06401626","ECCENTRICITY":"0.00012810","TIME_SYSTEM":"UTC","APOAPSIS":"548.096","CLASSIFICATION_TYPE":"U","MEAN_ELEMENT_THEORY":"SGP4","DECAY_DATE":null,"NORAD_CAT_ID":"47357","SITE":"AFETR","PERIAPSIS":"546.321","ARG_OF_PERICENTER":"68.2827","TLE_LINE1":"1 47357U 21005J   22177.82634527  .00001293  00000-0  10568-3 0  9998","GP_ID":"206925860","MEAN_MOTION_DOT":"0.00001293"},{"OBJECT_TYPE":"PAYLOAD","RCS_SIZE":"LARGE","MEAN_ANOMALY":"292.0174","PERIOD":"95.593","RA_OF_ASC_NODE":"340.3564","REV_AT_EPOCH":"7970","SEMIMAJOR_AXIS":"6925.366","INCLINATION":"53.0575","BSTAR":"0.00009786700000","OBJECT_ID":"2021-005K","EPHEMERIS_TYPE":"0","CENTER_NAME":"EARTH","MEAN_MOTION_DDOT":"0.0000000000000","TLE_LINE2":"2 47358  53.0575 340.3564 0001499  68.0974 292.0174 15.06394202 79706","FILE":"3503441","COUNTRY_CODE":"US","ELEMENT_SET_NO":"999","LAUNCH_DATE":"2021-01-20","REF_FRAME":"TEME","TLE_LINE1":"1 47358U 21005K   22177.82817406  .00001176  00000-0  97867-4 0  9996","ARG_OF_PERICENTER":"68.0974","SITE":"AFETR","PERIAPSIS":"546.193","DECAY_DATE":null,"NORAD_CAT_ID":"47358","MEAN_ELEMENT_THEORY":"SGP4","CLASSIFICATION_TYPE":"U","MEAN_MOTION_DOT":"0.00001176","GP_ID":"206926088","MEAN_MOTION":"15.06394202","OBJECT_NAME":"STARLINK-2055","EPOCH":"2022-06-26T19:52:34.238784","TIME_SYSTEM":"UTC","APOAPSIS":"548.269","ECCENTRICITY":"0.00014990"},{"RCS_SIZE":"LARGE","OBJECT_TYPE":"PAYLOAD","PERIOD":"95.592","MEAN_ANOMALY":"290.0708","REV_AT_EPOCH":"7935","SEMIMAJOR_AXIS":"6925.365","RA_OF_ASC_NODE":"5.3030","BSTAR":"0.00007575300000","INCLINATION":"53.0558","EPHEMERIS_TYPE":"0","CENTER_NAME":"EARTH","OBJECT_ID":"2021-005L","MEAN_MOTION_DDOT":"0.0000000000000","ELEMENT_SET_NO":"999","TLE_LINE2":"2 47359  53.0558   5.3030 0001620  70.0455 290.0708 15.06394506 79356","FILE":"3503441","COUNTRY_CODE":"US","REF_FRAME":"TEME","LAUNCH_DATE":"2021-01-20","NORAD_CAT_ID":"47359","DECAY_DATE":null,"SITE":"AFETR","ARG_OF_PERICENTER":"70.0455","PERIAPSIS":"546.108","TLE_LINE1":"1 47359U 21005L   22177.83971697  .00000847  00000-0  75753-4 0  9995","MEAN_ELEMENT_THEORY":"SGP4","CLASSIFICATION_TYPE":"U","GP_ID":"206925358","MEAN_MOTION_DOT":"0.00000847","OBJECT_NAME":"STARLINK-2069","EPOCH":"2022-06-26T20:09:11.546208","MEAN_MOTION":"15.06394506","ECCENTRICITY":"0.00016200","TIME_SYSTEM":"UTC","APOAPSIS":"548.352"}];
